<?xml version="1.0" encoding="UTF-8" standalone="no"?>
<gpx version="1.1" creator="GPX Editor 1.7.14.1740" xmlns="http://www.topografix.com/GPX/1/1" xmlns:xsi="http://www.w3.org/2001/XMLSchema-instance" xsi:schemaLocation="http://www.topografix.com/GPX/1/1 http://www.topografix.com/GPX/1/1/gpx.xsd">
<metadata>
	<bounds minlat="59.431987" minlon="24.714373" maxlat="59.484546" maxlon="24.850146" />
</metadata>
<trk>
	<name>New track</name>
	<trkseg>
		<trkpt lat="59.431987" lon="24.714373">
			<ele>3.286</ele>
			<time>2022-05-29T20:19:42Z</time>
		</trkpt>
		<trkpt lat="59.432532" lon="24.716039">
			<ele>2.063</ele>
			<time>2022-05-29T20:19:51Z</time>
		</trkpt>
		<trkpt lat="59.43255" lon="24.716095">
			<ele>2.691</ele>
			<time>2022-05-29T20:19:57Z</time>
		</trkpt>
		<trkpt lat="59.43255" lon="24.716095">
			<ele>3.082</ele>
			<time>2022-05-29T20:20:24Z</time>
		</trkpt>
		<trkpt lat="59.432562" lon="24.716132">
			<ele>3.412</ele>
			<time>2022-05-29T20:20:43Z</time>
		</trkpt>
		<trkpt lat="59.432962" lon="24.717487">
			<ele>4.116</ele>
			<time>2022-05-29T20:20:53Z</time>
		</trkpt>
		<trkpt lat="59.43361" lon="24.7205">
			<ele>4.492</ele>
			<time>2022-05-29T20:21:07Z</time>
		</trkpt>
		<trkpt lat="59.434297" lon="24.724002">
			<ele>6.59</ele>
			<time>2022-05-29T20:21:24Z</time>
		</trkpt>
		<trkpt lat="59.434454" lon="24.72473">
			<ele>8.694</ele>
			<time>2022-05-29T20:21:27Z</time>
		</trkpt>
		<trkpt lat="59.434704" lon="24.726536">
			<ele>10.167</ele>
			<time>2022-05-29T20:21:35Z</time>
		</trkpt>
		<trkpt lat="59.434789" lon="24.727247">
			<ele>10.49</ele>
			<time>2022-05-29T20:21:38Z</time>
		</trkpt>
		<trkpt lat="59.434969" lon="24.729035">
			<ele>14.286</ele>
			<time>2022-05-29T20:21:46Z</time>
		</trkpt>
		<trkpt lat="59.435017" lon="24.730266">
			<ele>16.976</ele>
			<time>2022-05-29T20:21:52Z</time>
		</trkpt>
		<trkpt lat="59.434914" lon="24.732338">
			<ele>16.172</ele>
			<time>2022-05-29T20:22:04Z</time>
		</trkpt>
		<trkpt lat="59.434908" lon="24.732435">
			<ele>16.516</ele>
			<time>2022-05-29T20:22:12Z</time>
		</trkpt>
		<trkpt lat="59.434898" lon="24.732592">
			<ele>16.639</ele>
			<time>2022-05-29T20:22:19Z</time>
		</trkpt>
		<trkpt lat="59.435177" lon="24.732842">
			<ele>15.645</ele>
			<time>2022-05-29T20:22:26Z</time>
		</trkpt>
		<trkpt lat="59.436084" lon="24.73265">
			<ele>12.847</ele>
			<time>2022-05-29T20:22:35Z</time>
		</trkpt>
		<trkpt lat="59.436314" lon="24.732735">
			<ele>13.833</ele>
			<time>2022-05-29T20:22:38Z</time>
		</trkpt>
		<trkpt lat="59.43738" lon="24.733651">
			<ele>14.237</ele>
			<time>2022-05-29T20:22:48Z</time>
		</trkpt>
		<trkpt lat="59.438507" lon="24.734889">
			<ele>15.196</ele>
			<time>2022-05-29T20:22:59Z</time>
		</trkpt>
		<trkpt lat="59.438976" lon="24.735868">
			<ele>15.456</ele>
			<time>2022-05-29T20:23:04Z</time>
		</trkpt>
		<trkpt lat="59.439296" lon="24.736633">
			<ele>15.379</ele>
			<time>2022-05-29T20:23:08Z</time>
		</trkpt>
		<trkpt lat="59.440176" lon="24.739194">
			<ele>16.406</ele>
			<time>2022-05-29T20:23:23Z</time>
		</trkpt>
		<trkpt lat="59.441612" lon="24.74294">
			<ele>14.618</ele>
			<time>2022-05-29T20:23:38Z</time>
		</trkpt>
		<trkpt lat="59.442043" lon="24.744301">
			<ele>13.689</ele>
			<time>2022-05-29T20:23:45Z</time>
		</trkpt>
		<trkpt lat="59.441982" lon="24.745112">
			<ele>14.054</ele>
			<time>2022-05-29T20:23:49Z</time>
		</trkpt>
		<trkpt lat="59.441957" lon="24.745547">
			<ele>14.09</ele>
			<time>2022-05-29T20:23:51Z</time>
		</trkpt>
		<trkpt lat="59.442154" lon="24.746572">
			<ele>15.186</ele>
			<time>2022-05-29T20:23:56Z</time>
		</trkpt>
		<trkpt lat="59.442792" lon="24.748901">
			<ele>11.87</ele>
			<time>2022-05-29T20:24:07Z</time>
		</trkpt>
		<trkpt lat="59.442876" lon="24.749224">
			<ele>11.038</ele>
			<time>2022-05-29T20:24:09Z</time>
		</trkpt>
		<trkpt lat="59.442902" lon="24.749322">
			<ele>10.267</ele>
			<time>2022-05-29T20:24:10Z</time>
		</trkpt>
		<trkpt lat="59.443303" lon="24.749392">
			<ele>7.576</ele>
			<time>2022-05-29T20:24:15Z</time>
		</trkpt>
		<trkpt lat="59.44342" lon="24.749408">
			<ele>6.189</ele>
			<time>2022-05-29T20:24:17Z</time>
		</trkpt>
		<trkpt lat="59.443588" lon="24.750073">
			<ele>5.369</ele>
			<time>2022-05-29T20:24:25Z</time>
		</trkpt>
		<trkpt lat="59.442974" lon="24.751562">
			<ele>4.485</ele>
			<time>2022-05-29T20:24:33Z</time>
		</trkpt>
		<trkpt lat="59.441206" lon="24.753249">
			<ele>3.61</ele>
			<time>2022-05-29T20:24:48Z</time>
		</trkpt>
		<trkpt lat="59.440432" lon="24.754931">
			<ele>2.919</ele>
			<time>2022-05-29T20:24:57Z</time>
		</trkpt>
		<trkpt lat="59.439594" lon="24.758306">
			<ele>1.957</ele>
			<time>2022-05-29T20:25:13Z</time>
		</trkpt>
		<trkpt lat="59.439552" lon="24.761322">
			<ele>1.733</ele>
			<time>2022-05-29T20:25:26Z</time>
		</trkpt>
		<trkpt lat="59.439728" lon="24.762527">
			<ele>0.542</ele>
			<time>2022-05-29T20:25:35Z</time>
		</trkpt>
		<trkpt lat="59.439919" lon="24.763377">
			<ele>1.422</ele>
			<time>2022-05-29T20:25:46Z</time>
		</trkpt>
		<trkpt lat="59.440687" lon="24.765823">
			<ele>1.074</ele>
			<time>2022-05-29T20:25:59Z</time>
		</trkpt>
		<trkpt lat="59.441507" lon="24.770758">
			<ele>1.11</ele>
			<time>2022-05-29T20:26:21Z</time>
		</trkpt>
		<trkpt lat="59.442398" lon="24.774862">
			<ele>1.197</ele>
			<time>2022-05-29T20:26:39Z</time>
		</trkpt>
		<trkpt lat="59.443889" lon="24.780993">
			<ele>1.609</ele>
			<time>2022-05-29T20:27:02Z</time>
		</trkpt>
		<trkpt lat="59.44349" lon="24.78453">
			<ele>2.237</ele>
			<time>2022-05-29T20:27:17Z</time>
		</trkpt>
		<trkpt lat="59.443023" lon="24.788303">
			<ele>1.369</ele>
			<time>2022-05-29T20:27:34Z</time>
		</trkpt>
		<trkpt lat="59.442547" lon="24.789945">
			<ele>2.703</ele>
			<time>2022-05-29T20:27:46Z</time>
		</trkpt>
		<trkpt lat="59.442673" lon="24.792338">
			<ele>1.86</ele>
			<time>2022-05-29T20:27:59Z</time>
		</trkpt>
		<trkpt lat="59.442708" lon="24.792602">
			<ele>1.419</ele>
			<time>2022-05-29T20:28:07Z</time>
		</trkpt>
		<trkpt lat="59.442797" lon="24.793626">
			<ele>3.619</ele>
			<time>2022-05-29T20:28:17Z</time>
		</trkpt>
		<trkpt lat="59.442965" lon="24.794782">
			<ele>3.942</ele>
			<time>2022-05-29T20:28:28Z</time>
		</trkpt>
		<trkpt lat="59.443298" lon="24.795553">
			<ele>4.765</ele>
			<time>2022-05-29T20:28:38Z</time>
		</trkpt>
		<trkpt lat="59.444205" lon="24.797014">
			<ele>4.269</ele>
			<time>2022-05-29T20:28:48Z</time>
		</trkpt>
		<trkpt lat="59.446208" lon="24.80018">
			<ele>4.418</ele>
			<time>2022-05-29T20:29:09Z</time>
		</trkpt>
		<trkpt lat="59.448023" lon="24.802905">
			<ele>5.652</ele>
			<time>2022-05-29T20:29:27Z</time>
		</trkpt>
		<trkpt lat="59.450532" lon="24.806347">
			<ele>5.103</ele>
			<time>2022-05-29T20:29:51Z</time>
		</trkpt>
		<trkpt lat="59.452699" lon="24.807962">
			<ele>5.023</ele>
			<time>2022-05-29T20:30:09Z</time>
		</trkpt>
		<trkpt lat="59.455566" lon="24.810014">
			<ele>5.306</ele>
			<time>2022-05-29T20:30:32Z</time>
		</trkpt>
		<trkpt lat="59.458259" lon="24.812827">
			<ele>4.844</ele>
			<time>2022-05-29T20:30:55Z</time>
		</trkpt>
		<trkpt lat="59.459575" lon="24.815711">
			<ele>5.204</ele>
			<time>2022-05-29T20:31:10Z</time>
		</trkpt>
		<trkpt lat="59.460849" lon="24.819976">
			<ele>3.961</ele>
			<time>2022-05-29T20:31:29Z</time>
		</trkpt>
		<trkpt lat="59.462487" lon="24.825663">
			<ele>3.455</ele>
			<time>2022-05-29T20:31:54Z</time>
		</trkpt>
		<trkpt lat="59.464009" lon="24.828689">
			<ele>5.504</ele>
			<time>2022-05-29T20:32:10Z</time>
		</trkpt>
		<trkpt lat="59.466322" lon="24.832991">
			<ele>5.927</ele>
			<time>2022-05-29T20:32:34Z</time>
		</trkpt>
		<trkpt lat="59.466902" lon="24.833559">
			<ele>6.035</ele>
			<time>2022-05-29T20:32:39Z</time>
		</trkpt>
		<trkpt lat="59.469603" lon="24.834915">
			<ele>5.42</ele>
			<time>2022-05-29T20:33:00Z</time>
		</trkpt>
		<trkpt lat="59.472063" lon="24.836138">
			<ele>4.948</ele>
			<time>2022-05-29T20:33:19Z</time>
		</trkpt>
		<trkpt lat="59.473939" lon="24.83746">
			<ele>5.147</ele>
			<time>2022-05-29T20:33:34Z</time>
		</trkpt>
		<trkpt lat="59.475759" lon="24.838997">
			<ele>4.792</ele>
			<time>2022-05-29T20:33:49Z</time>
		</trkpt>
		<trkpt lat="59.477456" lon="24.839703">
			<ele>4.927</ele>
			<time>2022-05-29T20:34:02Z</time>
		</trkpt>
		<trkpt lat="59.479944" lon="24.840485">
			<ele>4.295</ele>
			<time>2022-05-29T20:34:22Z</time>
		</trkpt>
		<trkpt lat="59.480652" lon="24.84069">
			<ele>3.499</ele>
			<time>2022-05-29T20:34:29Z</time>
		</trkpt>
		<trkpt lat="59.480831" lon="24.841157">
			<ele>3.545</ele>
			<time>2022-05-29T20:34:34Z</time>
		</trkpt>
		<trkpt lat="59.480748" lon="24.843411">
			<ele>5.065</ele>
			<time>2022-05-29T20:34:47Z</time>
		</trkpt>
		<trkpt lat="59.480714" lon="24.845242">
			<ele>5.743</ele>
			<time>2022-05-29T20:34:59Z</time>
		</trkpt>
		<trkpt lat="59.480901" lon="24.845465">
			<ele>6.197</ele>
			<time>2022-05-29T20:35:04Z</time>
		</trkpt>
		<trkpt lat="59.481312" lon="24.845491">
			<ele>6.383</ele>
			<time>2022-05-29T20:35:09Z</time>
		</trkpt>
		<trkpt lat="59.482375" lon="24.846267">
			<ele>6.566</ele>
			<time>2022-05-29T20:35:21Z</time>
		</trkpt>
		<trkpt lat="59.483628" lon="24.847281">
			<ele>6.873</ele>
			<time>2022-05-29T20:35:36Z</time>
		</trkpt>
		<trkpt lat="59.483678" lon="24.847321">
			<ele>6.669</ele>
			<time>2022-05-29T20:35:37Z</time>
		</trkpt>
		<trkpt lat="59.483702" lon="24.847663">
			<ele>7.504</ele>
			<time>2022-05-29T20:35:42Z</time>
		</trkpt>
		<trkpt lat="59.48359" lon="24.848236">
			<ele>7.908</ele>
			<time>2022-05-29T20:35:47Z</time>
		</trkpt>
		<trkpt lat="59.48364" lon="24.848661">
			<ele>8.411</ele>
			<time>2022-05-29T20:35:52Z</time>
		</trkpt>
		<trkpt lat="59.484306" lon="24.849906">
			<ele>9.657</ele>
			<time>2022-05-29T20:36:07Z</time>
		</trkpt>
		<trkpt lat="59.484429" lon="24.850029">
			<ele>10.045</ele>
			<time>2022-05-29T20:36:11Z</time>
		</trkpt>
		<trkpt lat="59.484546" lon="24.850146">
			<ele>9.752</ele>
			<time>2022-05-29T20:36:26Z</time>
		</trkpt>
		<trkpt lat="59.484546" lon="24.850146">
			<ele>9.314</ele>
			<time>2022-05-29T20:36:47Z</time>
		</trkpt>
		<trkpt lat="59.484546" lon="24.850146">
			<ele>9.585</ele>
			<time>2022-05-29T20:37:06Z</time>
		</trkpt>
		<trkpt lat="59.484546" lon="24.850146">
			<ele>10.265</ele>
			<time>2022-05-29T20:37:25Z</time>
		</trkpt>
		<trkpt lat="59.484546" lon="24.850146">
			<ele>9.521</ele>
			<time>2022-05-29T20:37:50Z</time>
		</trkpt>
		<trkpt lat="59.484546" lon="24.850146">
			<ele>10.025</ele>
			<time>2022-05-29T20:37:51Z</time>
		</trkpt>
		<trkpt lat="59.484546" lon="24.850146">
			<ele>10.009</ele>
			<time>2022-05-29T20:38:09Z</time>
		</trkpt>
		<trkpt lat="59.484546" lon="24.850146">
			<ele>9.561</ele>
			<time>2022-05-29T20:38:32Z</time>
		</trkpt>
		<trkpt lat="59.484546" lon="24.850146">
			<ele>9.984</ele>
			<time>2022-05-29T20:38:59Z</time>
		</trkpt>
		<trkpt lat="59.484546" lon="24.850146">
			<ele>10.764</ele>
			<time>2022-05-29T20:39:42Z</time>
		</trkpt>
		<trkpt lat="59.484546" lon="24.850146">
			<ele>10.528</ele>
			<time>2022-05-29T20:40:03Z</time>
		</trkpt>
		<trkpt lat="59.484546" lon="24.850146">
			<ele>10.471</ele>
			<time>2022-05-29T20:40:27Z</time>
		</trkpt>
		<trkpt lat="59.484546" lon="24.850146">
			<ele>10.632</ele>
			<time>2022-05-29T20:40:37Z</time>
		</trkpt>
		<trkpt lat="59.484546" lon="24.850146">
			<ele>10.111</ele>
			<time>2022-05-29T20:40:42Z</time>
		</trkpt>
		<trkpt lat="59.484546" lon="24.850146">
			<ele>9.721</ele>
			<time>2022-05-29T20:41:01Z</time>
		</trkpt>
	</trkseg>
</trk>

</gpx>